COSMOS 2251 DEB         
1 35647U 93036ANN 17341.15977769  .00000421  00000-0  15899-3 0  9995
2 35647  74.0272 273.8002 0055234 357.0598   3.0219 14.33543386256375
